HAWK-A                  
1 43765U 18099H   26197.09145057  .00003930  00000+0  15791-3 0  9998
2 43765  97.3893 248.9541 0034796 180.7785 179.3404 15.24971821417509
HAWK-B                  
1 43794U 18099AN  26197.14770715  .00003202  00000+0  13691-3 0  9990
2 43794  97.3944 248.3633 0031483 198.6833 161.3251 15.23121029417446
HAWK-C                  
1 43799U 18099AT  26197.26386185  .00004410  00000+0  15798-3 0  9994
2 43799  97.3872 250.1810 0040424 180.0507 180.0736 15.28500096418354
HAWK-2C                 
1 47502U 21006CT  26197.16444805  .00003456  00000+0  10400-3 0  9999
2 47502  97.2262 240.9001 0008670  98.1007 262.1221 15.34995811303941
HAWK-2A                 
1 47505U 21006CW  26197.16665786  .00004634  00000+0  13860-3 0  9997
2 47505  97.2304 241.5969 0008218 101.3926 258.8242 15.35017065303948
HAWK-2B                 
1 47508U 21006CZ  26197.09491835  .00004223  00000+0  12599-3 0  9996
2 47508  97.2175 239.8131 0008770 100.1637 260.0596 15.35143831303934
HAWK-3B                 
1 48931U 21059BE  26197.11878249  .00027283  00000+0  21047-3 0  9995
2 48931  97.6632  36.6148 0004585 194.7801 165.3329 15.71923124282398
HAWK-3C                 
1 48948U 21059BX  26197.11846658  .00030746  00000+0  23694-3 0  9990
2 48948  97.6746  42.3495 0004748 195.4013 164.7105 15.71924167282398
HAWK-3A                 
1 48957U 21059CG  26197.11835333  .00027941  00000+0  21549-3 0  9998
2 48957  97.6690  39.5308 0004740 197.5833 162.5266 15.71924465282397
HAWK-5C                 
1 52754U 22057Y   26196.93102428  .00011472  00000+0  19006-3 0  9995
2 52754  97.6616 358.4771 0002731 343.5481  16.5682 15.52341704230809
HAWK-5B                 
1 52756U 22057AA  26197.25314605  .00010179  00000+0  16883-3 0  9998
2 52756  97.6630 357.1743 0003368 327.6499  32.4546 15.52344390230856
HAWK-5A                 
1 52757U 22057AB  26197.25294804  .00010472  00000+0  17362-3 0  9996
2 52757  97.6626 358.0044 0003237 333.3201  26.7884 15.52346327230859
HAWK-6B                 
1 55324U 23011A   26197.16540259  .00002490  00000+0  11131-3 0  9997
2 55324  40.4971 183.0180 0004302 245.3906 114.6455 15.23158930192268
HAWK-6C                 
1 55326U 23011C   26197.29590314  .00002158  00000+0  97569-4 0  9991
2 55326  40.4963 179.0925 0004832 239.5960 120.4372 15.23160097192299
HAWK-6A                 
1 55327U 23011D   26197.29594078  .00002283  00000+0  10276-3 0  9991
2 55327  40.4973 180.7192 0004421 236.7888 123.2498 15.23159879192294
HAWK-7A                 
1 56191U 23054P   26197.19610233  .00002914  00000+0  11052-3 0  9993
2 56191  97.2660  83.7959 0001296 327.4468  32.6692 15.27638339181451
